NORAD_CAT_ID,OBJECT_NAME,OBJECT_TYPE,EPOCH,MEAN_MOTION,ECCENTRICITY,INCLINATION,RA_OF_ASC_NODE,ARG_OF_PERICENTER,MEAN_ANOMALY,BSTAR,MEAN_MOTION_DOT,MEAN_MOTION_DDOT,TLE_LINE0,TLE_LINE1,TLE_LINE2,SEMIMAJOR_AXIS,PERIOD,APOGEE,PERIGEE,DECAYED
53182.0,STARLINK-4278,PAYLOAD,2024-02-18 14:49:23,15.08842934,0.0001363,53.2157,266.314,88.9218,271.193,-1.7609e-05,-5.68e-06,0.0,0 STARLINK-4278,1 53182U 22083BC  24049.61763566 -.00000568  00000-0 -17609-4 0  9991,2 53182  53.2157 266.3140 0001363  88.9218 271.1930 15.08842934 88468,6917.871,95.437,540.679,538.794,0.0
53182.0,STARLINK-4278,PAYLOAD,2024-02-18 21:10:56,15.08844687,0.0001371,53.2161,265.1269,89.1329,270.982,1.6078e-05,-3.2e-07,0.0,0 STARLINK-4278,1 53182U 22083BC  24049.88259273 -.00000032  00000-0  16078-4 0  9999,2 53182  53.2161 265.1269 0001371  89.1329 270.9820 15.08844687 88504,6917.866,95.437,540.68,538.783,0.0
53182.0,STARLINK-4278,PAYLOAD,2024-02-19 00:21:42,15.08846815,0.0001346,53.2157,264.5308,87.706,272.4087,1.7237e-05,-1.4e-07,0.0,0 STARLINK-4278,1 53182U 22083BC  24050.01507067 -.00000014  00000-0  17237-4 0  9991,2 53182  53.2157 264.5308 0001346  87.7060 272.4087 15.08846815 89164,6917.86,95.437,540.656,538.793,0.0
53182.0,STARLINK-4278,PAYLOAD,2024-02-19 06:43:14,15.08842221,0.0001163,53.2148,263.3408,87.0428,273.0697,-2.0296e-05,-6.11e-06,0.0,0 STARLINK-4278,1 53182U 22083BC  24050.28003399 -.00000611  00000-0 -20296-4 0  9992,2 53182  53.2148 263.3408 0001163  87.0428 273.0697 15.08842221 88564,6917.874,95.437,540.543,538.934,0.0
53182.0,STARLINK-4278,PAYLOAD,2024-02-19 19:26:20,15.08831093,0.000147,53.2162,260.9635,92.4212,267.6949,-3.1324e-05,-7.86e-06,0.0,0 STARLINK-4278,1 53182U 22083BC  24050.80996454 -.00000786  00000-0 -31324-4 0  9990,2 53182  53.2162 260.9635 0001470  92.4212 267.6949 15.08831093 89281,6917.908,95.438,540.79,538.756,0.0
53182.0,STARLINK-4278,PAYLOAD,2024-02-19 21:01:44,15.08831618,0.0001345,53.216,260.6685,86.811,273.3036,-3.2218e-05,-8e-06,0.0,0 STARLINK-4278,1 53182U 22083BC  24050.87620452 -.00000800  00000-0 -32218-4 0  9999,2 53182  53.2160 260.6685 0001345  86.8110 273.3036 15.08831618 88650,6917.906,95.438,540.701,538.841,0.0
53182.0,STARLINK-4278,PAYLOAD,2024-02-20 12:55:35,15.08839325,0.0001317,53.216,257.6941,89.8915,270.2228,3.2086e-05,2.23e-06,0.0,0 STARLINK-4278,1 53182U 22083BC  24051.53859977  .00000223  00000-0  32086-4 0  9999,2 53182  53.2160 257.6941 0001317  89.8915 270.2228 15.08839325 88759,6917.882,95.438,540.659,538.836,0.0
53182.0,STARLINK-4278,PAYLOAD,2024-02-20 19:17:07,15.08844249,0.0001316,53.216,256.5049,90.3931,269.7211,7.3584e-05,8.84e-06,0.0,0 STARLINK-4278,1 53182U 22083BC  24051.80355505  .00000884  00000-0  73584-4 0  9998,2 53182  53.2160 256.5049 0001316  90.3931 269.7211 15.08844249 89432,6917.867,95.437,540.643,538.822,0.0
53182.0,STARLINK-4278,PAYLOAD,2024-02-20 20:52:30,15.08844152,0.0001338,53.216,256.2075,93.2367,266.8779,7.8944e-05,9.69e-06,0.0,0 STARLINK-4278,1 53182U 22083BC  24051.86979469  .00000969  00000-0  78944-4 0  9994,2 53182  53.2160 256.2075 0001338  93.2367 266.8779 15.08844152 88807,6917.868,95.437,540.658,538.807,0.0
53182.0,STARLINK-4278,PAYLOAD,2024-02-21 12:46:22,15.08833946,0.0001322,53.2159,253.234,88.9204,271.1939,9.6603e-05,1.25e-05,0.0,0 STARLINK-4278,1 53182U 22083BC  24052.53220085  .00001250  00000-0  96603-4 0  9998,2 53182  53.2159 253.2340 0001322  88.9204 271.1939 15.08833946 88908,6917.899,95.438,540.678,538.849,0.0
53182.0,STARLINK-4278,PAYLOAD,2024-02-21 19:07:55,15.08833592,0.0001314,53.2157,252.0441,86.8292,273.285,4.3742e-05,4.08e-06,0.0,0 STARLINK-4278,1 53182U 22083BC  24052.79716438  .00000408  00000-0  43742-4 0  9998,2 53182  53.2157 252.0441 0001314  86.8292 273.2850 15.08833592 89587,6917.9,95.438,540.674,538.856,0.0
53182.0,STARLINK-4278,PAYLOAD,2024-02-21 20:43:18,15.08834983,0.000133,53.2159,251.7468,86.7157,273.3987,5.4012e-05,5.72e-06,0.0,0 STARLINK-4278,1 53182U 22083BC  24052.86340332  .00000572  00000-0  54012-4 0  9996,2 53182  53.2159 251.7468 0001330  86.7157 273.3987 15.08834983 88958,6917.896,95.438,540.681,538.841,0.0
53182.0,STARLINK-4278,PAYLOAD,2024-02-22 06:15:36,15.08837235,0.000134,53.2157,249.9622,82.4162,277.6982,6.1467e-05,6.9e-06,0.0,0 STARLINK-4278,1 53182U 22083BC  24053.26084254  .00000690  00000-0  61467-4 0  9992,2 53182  53.2157 249.9622 0001340  82.4162 277.6982 15.08837235 89010,6917.889,95.438,540.681,538.827,0.0
53182.0,STARLINK-4278,PAYLOAD,2024-02-22 18:58:41,15.088425,0.0001387,53.2157,247.5838,81.9902,278.1247,2.4301e-06,-2.49e-06,0.0,0 STARLINK-4278,1 53182U 22083BC  24053.79076106 -.00000249  00000-0  24301-5 0  9995,2 53182  53.2157 247.5838 0001387  81.9902 278.1247 15.08842500 89730,6917.873,95.437,540.697,538.778,0.0
53182.0,STARLINK-4278,PAYLOAD,2024-02-22 20:34:04,15.08843274,0.0001405,53.2157,247.2864,81.912,278.2031,8.7874e-06,-1.48e-06,0.0,0 STARLINK-4278,1 53182U 22083BC  24053.85700015 -.00000148  00000-0  87874-5 0  9997,2 53182  53.2157 247.2864 0001405  81.9120 278.2031 15.08843274 89101,6917.87,95.437,540.707,538.763,0.0
53182.0,STARLINK-4278,PAYLOAD,2024-02-23 06:06:23,15.08842427,0.0001446,53.2163,245.5018,81.7798,278.3358,3.871e-05,3.28e-06,0.0,0 STARLINK-4278,1 53182U 22083BC  24054.25443917  .00000328  00000-0  38710-4 0  9990,2 53182  53.2163 245.5018 0001446  81.7798 278.3358 15.08842427 89162,6917.873,95.437,540.738,538.738,0.0
53182.0,STARLINK-4278,PAYLOAD,2024-02-23 22:00:14,15.08844986,0.0001496,53.2162,242.5276,82.4709,277.6453,8.7334e-05,1.102e-05,0.0,0 STARLINK-4278,1 53182U 22083BC  24054.91683573  .00001102  00000-0  87334-4 0  9994,2 53182  53.2162 242.5276 0001496  82.4709 277.6453 15.08844986 89260,6917.865,95.437,540.765,538.695,0.0
53182.0,STARLINK-4278,PAYLOAD,2024-02-24 12:18:43,15.08835377,0.0001465,53.2154,239.8502,86.7959,273.3201,4.3442e-05,4.03e-06,0.0,0 STARLINK-4278,1 53182U 22083BC  24055.51300287  .00000403  00000-0  43442-4 0  9994,2 53182  53.2154 239.8502 0001465  86.7959 273.3201 15.08835377 89990,6917.895,95.438,540.773,538.746,0.0
53182.0,STARLINK-4278,PAYLOAD,2024-02-24 18:40:15,15.08842249,0.0001426,53.2146,238.6605,87.3973,272.7182,1.3365e-06,-2.67e-06,0.0,0 STARLINK-4278,1 53182U 22083BC  24055.77795917 -.00000267  00000-0  13365-5 0  9991,2 53182  53.2146 238.6605 0001426  87.3973 272.7182 15.08842249 89393,6917.874,95.437,540.725,538.752,0.0
53182.0,STARLINK-4278,PAYLOAD,2024-02-25 21:41:48,15.08849169,0.0001351,53.2157,233.6053,101.8583,258.2561,5.9088e-05,6.53e-06,0.0,0 STARLINK-4278,1 53182U 22083BC  24056.90403127  .00000653  00000-0  59088-4 0  9995,2 53182  53.2157 233.6053 0001351 101.8583 258.2561 15.08849169 89560,6917.852,95.437,540.652,538.783,0.0
53182.0,STARLINK-4278,PAYLOAD,2024-02-26 12:00:18,15.08824303,8.97e-05,53.2162,230.9296,86.819,273.2905,-5.6928e-05,-1.193e-05,0.0,0 STARLINK-4278,1 53182U 22083BC  24057.50021252 -.00001193  00000-0 -56928-4 0  9999,2 53182  53.2162 230.9296 0000897  86.8190 273.2905 15.08824303 90299,6917.928,95.439,540.414,539.173,0.0
53182.0,STARLINK-4278,PAYLOAD,2024-02-26 16:46:27,15.08830053,0.0001398,53.216,230.0375,101.2531,258.8619,-9.3738e-06,-4.37e-06,0.0,0 STARLINK-4278,1 53182U 22083BC  24057.69892894 -.00000437  00000-0 -93738-5 0  9998,2 53182  53.2160 230.0375 0001398 101.2531 258.8619 15.08830053 90328,6917.911,95.438,540.743,538.809,0.0
53182.0,STARLINK-4278,PAYLOAD,2024-02-26 21:32:36,15.08833203,0.0001276,53.2148,229.1436,98.7245,261.3892,-9.3218e-06,-4.36e-06,0.0,0 STARLINK-4278,1 53182U 22083BC  24057.89764780 -.00000436  00000-0 -93218-5 0  9994,2 53182  53.2148 229.1436 0001276  98.7245 261.3892 15.08833203 89711,6917.901,95.438,540.649,538.883,0.0
53182.0,STARLINK-4278,PAYLOAD,2024-02-27 11:51:04,15.08841015,0.0001231,53.2154,226.4668,98.3921,261.7211,-2.6074e-06,-3.29e-06,0.0,0 STARLINK-4278,1 53182U 22083BC  24058.49380449 -.00000329  00000-0 -26074-5 0  9994,2 53182  53.2154 226.4668 0001231  98.3921 261.7211 15.08841015 90444,6917.877,95.437,540.594,538.891,0.0
53182.0,STARLINK-4278,PAYLOAD,2024-02-27 15:01:50,15.08843309,0.0001334,53.2157,225.8723,103.2085,256.9056,2.279e-05,7.5e-07,0.0,0 STARLINK-4278,1 53182U 22083BC  24058.62628219  .00000075  00000-0  22790-4 0  9995,2 53182  53.2157 225.8723 0001334 103.2085 256.9056 15.08843309 89824,6917.87,95.437,540.658,538.812,0.0
53182.0,STARLINK-4278,PAYLOAD,2024-02-27 19:48:00,15.08842557,0.0001352,53.2155,224.985,105.0092,255.105,-2.8482e-05,-7.41e-06,0.0,0 STARLINK-4278,1 53182U 22083BC  24058.82500475 -.00000741  00000-0 -28482-4 0  9996,2 53182  53.2155 224.9850 0001352 105.0092 255.1050 15.08842557 89853,6917.873,95.437,540.673,538.802,0.0
53182.0,STARLINK-4278,PAYLOAD,2024-02-28 03:44:57,15.08830431,0.0001295,53.216,223.4943,91.2189,268.8952,-9.6061e-05,-1.816e-05,0.0,0 STARLINK-4278,1 53182U 22083BC  24059.15621533 -.00001816  00000-0 -96061-4 0  9994,2 53182  53.2160 223.4943 0001295  91.2189 268.8952 15.08830431 90543,6917.91,95.438,540.671,538.879,0.0
53182.0,STARLINK-4278,PAYLOAD,2024-02-28 14:52:39,15.08828465,0.0001262,53.215,221.4128,99.6013,260.5122,6.1226e-05,6.86e-06,0.0,0 STARLINK-4278,1 53182U 22083BC  24059.61989761  .00000686  00000-0  61226-4 0  9992,2 53182  53.2150 221.4128 0001262  99.6013 260.5122 15.08828465 89974,6917.916,95.438,540.654,538.908,0.0
53182.0,STARLINK-4278,PAYLOAD,2024-02-28 19:38:48,15.0883627,0.0001368,53.2161,220.523,100.9061,259.2085,0.00014314,1.991e-05,0.0,0 STARLINK-4278,1 53182U 22083BC  24059.81861295  .00001991  00000-0  14314-3 0  9990,2 53182  53.2161 220.5230 0001368 100.9061 259.2085 15.08836270 90648,6917.892,95.438,540.703,538.81,0.0
53182.0,STARLINK-4278,PAYLOAD,2024-02-29 14:43:25,15.0884895,0.0001275,53.2164,216.953,90.2058,269.9081,0.00011864,1.601e-05,0.0,0 STARLINK-4278,1 53182U 22083BC  24060.61348609  .00001601  00000-0  11864-3 0  9994,2 53182  53.2164 216.9530 0001275  90.2058 269.9081 15.08848950 90122,6917.853,95.437,540.6,538.836,0.0
